[{"OBJECT_NAME":"FLOCK 4G-24","OBJECT_ID":"2025-009AE","EPOCH":"2026-03-09T17:24:07.838208","MEAN_MOTION":15.27784978,"ECCENTRICITY":0.0001802,"INCLINATION":97.4061,"RA_OF_ASC_NODE":151.514,"ARG_OF_PERICENTER":280.2808,"MEAN_ANOMALY":79.8228,"EPHEMERIS_TYPE":0,"CLASSIFICATION_TYPE":"U","NORAD_CAT_ID":62637,"ELEMENT_SET_NO":999,"REV_AT_EPOCH":6373,"BSTAR":0.00038996067,"MEAN_MOTION_DOT":0.00010513,"MEAN_MOTION_DDOT":0},{"OBJECT_NAME":"STARLINK-35327","OBJECT_ID":"2025-259T","EPOCH":"2026-03-09T22:29:05.646624","MEAN_MOTION":15.27606617,"ECCENTRICITY":0.00033465,"INCLINATION":43.0054,"RA_OF_ASC_NODE":272.5565,"ARG_OF_PERICENTER":265.1757,"MEAN_ANOMALY":94.8713,"EPHEMERIS_TYPE":0,"CLASSIFICATION_TYPE":"U","NORAD_CAT_ID":66439,"ELEMENT_SET_NO":999,"REV_AT_EPOCH":1953,"BSTAR":0.00092889231,"MEAN_MOTION_DOT":0.0002541,"MEAN_MOTION_DDOT":0}]
